CCSDS_OMM_VERS,COMMENT,CREATION_DATE,ORIGINATOR,OBJECT_NAME,OBJECT_ID,CENTER_NAME,REF_FRAME,TIME_SYSTEM,MEAN_ELEMENT_THEORY,EPOCH,MEAN_MOTION,ECCENTRICITY,INCLINATION,RA_OF_ASC_NODE,ARG_OF_PERICENTER,MEAN_ANOMALY,EPHEMERIS_TYPE,CLASSIFICATION_TYPE,NORAD_CAT_ID,ELEMENT_SET_NO,REV_AT_EPOCH,BSTAR,MEAN_MOTION_DOT,MEAN_MOTION_DDOT,SEMIMAJOR_AXIS,PERIOD,APOAPSIS,PERIAPSIS,OBJECT_TYPE,RCS_SIZE,COUNTRY_CODE,LAUNCH_DATE,SITE,DECAY_DATE,FILE,GP_ID,TLE_LINE0,TLE_LINE1,TLE_LINE2
"3.0","GENERATED VIA SPACE-TRACK.ORG API","2025-06-11T06:56:26","18 SPCS","OBJECT K","2019-038K","EARTH","TEME","UTC","SGP4","2025-06-09T04:58:33.292992","16.48176738","0.00114930","97.6770","188.4538","246.3742","113.6355","0","U","44395","999","32961","0.00019282000000","0.13168537","0.0000027998000","6522.278","87.369","151.639","136.647","UNKNOWN","MEDIUM","TBD","2019-07-05","VOSTO","2025-06-12","4753128","289670942","0 OBJECT K","1 44395U 19038K   25160.20732978  .13168537  27998-5  19282-3 0  9997","2 44395  97.6770 188.4538 0011493 246.3742 113.6355 16.48176738329612"
"3.0","GENERATED VIA SPACE-TRACK.ORG API","2025-06-14T02:50:29","18 SPCS","THORAD AGENA D DEB","1969-082BG","EARTH","TEME","UTC","SGP4","2025-06-09T06:13:29.796960","16.24331082","0.00140710","69.8599","145.1823","243.7549","116.2227","0","U","4193","999","83889","0.00720060000000","0.19948500","0.0000042624000","6585.956","88.652","217.088","198.554","DEBRIS","SMALL","US","1969-09-30","AFWTR","2025-06-14","4755872","289856697","0 THORAD AGENA D DEB","1 04193U 69082BG  25160.25937265  .19948500  42624-5  72006-2 0  9991","2 04193  69.8599 145.1823 0014071 243.7549 116.2227 16.24331082838893"
"3.0","GENERATED VIA SPACE-TRACK.ORG API","2025-06-11T18:06:17","18 SPCS","ARIANE 42P+ DEB","1992-072P","EARTH","TEME","UTC","SGP4","2025-06-09T07:27:28.203840","2.90905356","0.65199970","6.3750","181.5630","68.0240","10.5030","0","U","28280","999","24506","0.00000000000000","-0.00000059","0.0000000000000","20728.476","495.006","27865.300","835.381","DEBRIS","MEDIUM","FR","1992-10-28","FRGUI","","4753609","289681407","0 ARIANE 42P+ DEB","1 28280U 92072P   25160.31074310 -.00000059  00000-0  00000+0 0  9997","2 28280   6.3750 181.5630 6519997  68.0240  10.5030  2.90905356245068"
"3.0","GENERATED VIA SPACE-TRACK.ORG API","2025-06-10T03:42:05","18 SPCS","FLOCK 4Y 27","2023-001CC","EARTH","TEME","UTC","SGP4","2025-06-09T10:37:23.961216","16.43682367","0.00155320","97.3471","237.4182","267.8432","92.1091","0","U","55083","999","13608","0.00045944000000","0.15422812","0.0000025370000","6534.162","87.608","166.176","145.878","PAYLOAD","MEDIUM","US","2023-01-03","AFETR","2025-06-12","4752400","289584646","0 FLOCK 4Y 27","1 55083U 23001CC  25160.44263844  .15422812  25370-5  45944-3 0  9992","2 55083  97.3471 237.4182 0015532 267.8432  92.1091 16.43682367136085"
"3.0","GENERATED VIA SPACE-TRACK.ORG API","2025-06-15T17:31:50","18 SPCS","OBJECT AD","2021-022AD","EARTH","TEME","UTC","SGP4","2025-06-09T10:54:08.305056","16.36806138","0.00110320","97.3899","75.6235","227.2558","132.7812","0","U","47959","999","23269","0.00090589000000","0.07940347","0.0000025506000","6552.449","87.976","181.543","167.086","UNKNOWN","SMALL","TBD","2021-03-22","TTMTR","2025-06-09","4757502","290003722","0 OBJECT AD","1 47959U 21022AD  25160.45426279  .07940347  25506-5  90589-3 0  9995","2 47959  97.3899  75.6235 0011032 227.2558 132.7812 16.36806138232695"
"3.0","GENERATED VIA SPACE-TRACK.ORG API","2025-06-10T13:56:17","18 SPCS","STARLINK-1957","2021-009L","EARTH","TEME","UTC","SGP4","2025-06-10T08:21:23.526144","16.41714577","0.00036610","53.0308","105.7462","253.3945","249.1172","0","U","47558","999","24116","0.00062985000000","0.10714600","0.0000123920000","6539.382","87.713","163.642","158.853","PAYLOAD","LARGE","US","2021-02-04","AFETR","2025-06-10","4752401","289592362","0 STARLINK-1957","1 47558U 21009L   25161.34818896  .10714600  12392-4  62985-3 0  9996","2 47558  53.0308 105.7462 0003661 253.3945 249.1172 16.41714577241165"
"3.0","GENERATED VIA SPACE-TRACK.ORG API","2025-06-10T14:16:19","18 SPCS","STARLINK-30173","2023-105K","EARTH","TEME","UTC","SGP4","2025-06-10T13:19:01.827264","16.32028811","0.00078480","42.9635","245.0349","1.5675","130.2128","0","U","57439","999","10526","0.00459080000000","0.27074672","0.0000092371000","6565.230","88.234","192.248","181.943","PAYLOAD","LARGE","US","2023-07-24","AFETR","2025-06-10","4752419","289592413","0 STARLINK-30173","1 57439U 23105K   25161.55488226  .27074672  92371-5  45908-2 0  9994","2 57439  42.9635 245.0349 0007848   1.5675 130.2128 16.32028811105260"
"3.0","GENERATED VIA SPACE-TRACK.ORG API","2026-06-23T03:40:42","18 SPCS","ATLAS 5 CENTAUR DEB","2018-079FV","EARTH","TEME","UTC","SGP4","2025-06-10T21:41:18.446208","1.77099486","0.43448381","12.1789","88.5109","210.0375","115.6332","0","U","49368","999","754","0.00000000000000","-0.00000093","0.0000000000000","28857.385","813.102","35017.317","9941.183","DEBRIS","","US","2018-10-17","AFETR","","5257616","330965313","0 ATLAS 5 CENTAUR DEB","1 49368U 18079FV  25161.90368572 -.00000093  00000-0  00000-0 0  9993","2 49368  12.1789  88.5109 4344838 210.0375 115.6332  1.77099486  7541"
"3.0","GENERATED VIA SPACE-TRACK.ORG API","2025-06-11T09:06:30","18 SPCS","XPNAV-1","2016-066A","EARTH","TEME","UTC","SGP4","2025-06-11T08:10:39.806400","16.45985878","0.00108510","97.2943","199.9075","263.6962","110.8025","0","U","41841","999","47920","0.00031677000000","0.14626642","0.0000025244000","6528.065","87.486","157.013","142.846","PAYLOAD","MEDIUM","PRC","2016-11-09","JSC","2025-06-11","4753242","289672714","0 XPNAV-1","1 41841U 16066A   25162.34073850  .14626642  25244-5  31677-3 0  9993","2 41841  97.2943 199.9075 0010851 263.6962 110.8025 16.45985878479203"
"3.0","GENERATED VIA SPACE-TRACK.ORG API","2025-06-11T22:46:31","18 SPCS","ELECTRON R/B","2025-118C","EARTH","TEME","UTC","SGP4","2025-06-11T14:39:36.151776","16.34335593","0.00684320","58.9851","180.7417","278.6129","185.4289","0","U","64232","999","136","0.00034541000000","0.11505920","0.0000108070000","6559.051","88.109","225.801","136.031","ROCKET BODY","MEDIUM","US","2025-06-02","RLLC","2025-06-12","4753686","289713158","0 ELECTRON R/B","1 64232U 25118C   25162.61083509  .11505920  10807-4  34541-3 0  9995","2 64232  58.9851 180.7417 0068432 278.6129 185.4289 16.34335593  1360"
"3.0","GENERATED VIA SPACE-TRACK.ORG API","2025-06-14T02:50:29","18 SPCS","BRO-7","2022-033T","EARTH","TEME","UTC","SGP4","2025-06-11T18:17:42.758880","16.42172300","0.00167450","97.2708","262.3985","266.7450","93.1935","0","U","52174","999","17938","0.00044250000000","0.11393183","0.0000024806000","6538.167","87.689","170.980","149.084","PAYLOAD","MEDIUM","FR","2022-04-01","AFETR","2025-06-28","4755872","289876057","0 BRO-7","1 52174U 22033T   25162.76230045  .11393183  24806-5  44250-3 0  9994","2 52174  97.2708 262.3985 0016745 266.7450  93.1935 16.42172300179386"
"3.0","GENERATED VIA SPACE-TRACK.ORG API","2025-06-12T06:46:18","18 SPCS","KEPLER-4 (ANTILLES)","2020-068P","EARTH","TEME","UTC","SGP4","2025-06-11T21:14:20.571648","16.06347646","0.00092420","97.7601","165.5028","149.7305","210.4511","0","U","46499","999","26052","0.00116030000000","0.00854553","0.0003878000000","6635.019","89.644","263.016","250.752","PAYLOAD","MEDIUM","CA","2020-09-28","PKMTR","2025-06-18","4754099","289752883","0 KEPLER-4 (ANTILLES)","1 46499U 20068P   25162.88496032  .00854553  38780-3  11603-2 0  9996","2 46499  97.7601 165.5028 0009242 149.7305 210.4511 16.06347646260529"
"3.0","GENERATED VIA SPACE-TRACK.ORG API","2025-06-10T03:42:05","18 SPCS","OPS 7044 (VELA 12)","1970-027A","EARTH","TEME","UTC","SGP4","2025-06-11T21:23:16.333728","0.21456810","0.77535260","87.5969","0.9935","72.3352","1.1488","0","U","4366","999","4057","0.00000000000000","-0.00000305","0.0000000000000","117857.820","6711.156","202861.052","20098.318","PAYLOAD","LARGE","US","1970-04-08","AFETR","","4752400","289562779","0 OPS 7044 (VELA 12)","1 04366U 70027A   25162.89116127 -.00000305  00000-0  00000-0 0  9995","2 04366  87.5969   0.9935 7753526  72.3352   1.1488  0.21456810 40573"
"3.0","GENERATED VIA SPACE-TRACK.ORG API","2025-06-11T06:56:26","18 SPCS","OPS 7033 (VELA 11)","1970-027B","EARTH","TEME","UTC","SGP4","2025-06-11T21:50:17.552832","0.21504509","0.78243430","86.1941","359.2669","72.0060","0.7294","0","U","4368","999","3687","0.00000000000000","-0.00000395","0.0000000000000","117683.476","6696.270","203384.929","19225.753","PAYLOAD","LARGE","US","1970-04-08","AFETR","","4753135","289671337","0 OPS 7033 (VELA 11)","1  4368U 70027B   25162.90992538 -.00000395  00000-0  00000+0 0  9995","2  4368  86.1941 359.2669 7824343  72.0060   0.7294  0.21504509 36870"
"3.0","GENERATED VIA SPACE-TRACK.ORG API","2025-06-12T01:56:17","18 SPCS","COSMOS 1500","1983-099A","EARTH","TEME","UTC","SGP4","2025-06-12T00:28:55.771680","16.48578677","0.00122950","82.4518","299.7243","276.1066","202.9749","0","U","14372","999","28273","0.00017091000000","0.12617911","-0.0000012821000","6521.218","87.348","151.101","135.065","PAYLOAD","LARGE","CIS","1983-09-28","PKMTR","2025-06-12","4753903","289718356","0 COSMOS 1500","1 14372U 83099A   25163.02008995  .12617911 -12821-5  17091-3 0  9995","2 14372  82.4518 299.7243 0012295 276.1066 202.9749 16.48578677282734"
"3.0","GENERATED VIA SPACE-TRACK.ORG API","2025-08-08T04:05:44","18 SPCS","USA 340","2022-144E","EARTH","TEME","UTC","SGP4","2025-06-12T02:03:59.999904","0.99919047","0.01612790","4.4734","66.2414","302.5041","261.4999","0","U","55138","999","803","0.00000000000000","-0.00000216","0.0000000000000","42263.908","1441.167","36567.401","35204.145","PAYLOAD","LARGE","US","2022-11-01","AFETR","","4806722","294549307","0 USA 340","1 55138U 22144E   25163.08611111 -.00000216  00000-0  00000-0 0  9991","2 55138   4.4734  66.2414 0161279 302.5041 261.4999  0.99919047  8039"
